[{"OBJECT_NAME":"STARLINK-32941","OBJECT_ID":"2025-039R","EPOCH":"2026-03-09T03:18:03.630528","MEAN_MOTION":15.27563076,"ECCENTRICITY":0.00019058,"INCLINATION":43.0034,"RA_OF_ASC_NODE":4.5285,"ARG_OF_PERICENTER":261.3183,"MEAN_ANOMALY":98.7453,"EPHEMERIS_TYPE":0,"CLASSIFICATION_TYPE":"U","NORAD_CAT_ID":63119,"ELEMENT_SET_NO":999,"REV_AT_EPOCH":5811,"BSTAR":0.0011735904,"MEAN_MOTION_DOT":0.00032157,"MEAN_MOTION_DDOT":0},{"OBJECT_NAME":"OBJECT H","OBJECT_ID":"2025-155H","EPOCH":"2026-03-09T22:09:58.611456","MEAN_MOTION":15.27590961,"ECCENTRICITY":0.00081993,"INCLINATION":97.4482,"RA_OF_ASC_NODE":37.3122,"ARG_OF_PERICENTER":152.0629,"MEAN_ANOMALY":208.1051,"EPHEMERIS_TYPE":0,"CLASSIFICATION_TYPE":"U","NORAD_CAT_ID":64883,"ELEMENT_SET_NO":999,"REV_AT_EPOCH":6559,"BSTAR":0.00050403256,"MEAN_MOTION_DOT":0.00013547,"MEAN_MOTION_DDOT":0}]
